NORAD_CAT_ID,OBJECT_NAME,OBJECT_TYPE,EPOCH,MEAN_MOTION,ECCENTRICITY,INCLINATION,RA_OF_ASC_NODE,ARG_OF_PERICENTER,MEAN_ANOMALY,BSTAR,MEAN_MOTION_DOT,MEAN_MOTION_DDOT,TLE_LINE0,TLE_LINE1,TLE_LINE2,SEMIMAJOR_AXIS,PERIOD,APOGEE,PERIGEE,DECAYED
52291.0,STARLINK-3773,PAYLOAD,2024-06-05 02:57:19,15.13419232,0.000568,53.2159,102.456,64.7736,295.3847,0.0019894,0.00035835,0.0,0 STARLINK-3773,1 52291U 22041AG  24157.12314333  .00035835  00000-0  19894-2 0  9994,2 52291  53.2159 102.4560 0005680  64.7736 295.3847 15.13419232118735,6903.919,95.149,529.705,521.862,0.0
52291.0,STARLINK-3773,PAYLOAD,2024-06-05 06:07:31,15.13424696,0.0005702,53.2158,101.8592,64.7136,295.4448,0.0016675,0.00029967,0.0,0 STARLINK-3773,1 52291U 22041AG  24157.25522159  .00029967  00000-0  16675-2 0  9998,2 52291  53.2158 101.8592 0005702  64.7136 295.4448 15.13424696117536,6903.902,95.148,529.704,521.831,0.0
52291.0,STARLINK-3773,PAYLOAD,2024-06-05 20:23:22,15.13468895,0.0005656,53.2165,99.1718,67.0036,293.1554,0.0018994,0.0003424,0.0,0 STARLINK-3773,1 52291U 22041AG  24157.84956443  .00034240  00000-0  18994-2 0  9996,2 52291  53.2165  99.1718 0005656  67.0036 293.1554 15.13468895117628,6903.768,95.146,529.538,521.728,0.0
52291.0,STARLINK-3773,PAYLOAD,2024-06-06 02:43:44,15.13488226,0.0005667,53.2162,97.9776,67.1378,293.0214,0.0019776,0.00035689,0.0,0 STARLINK-3773,1 52291U 22041AG  24158.11371139  .00035689  00000-0  19776-2 0  9997,2 52291  53.2162  97.9776 0005667  67.1378 293.0214 15.13488226117663,6903.709,95.144,529.486,521.662,0.0
52291.0,STARLINK-3773,PAYLOAD,2024-06-06 20:09:44,15.13546619,0.0005626,53.2168,94.6935,69.3122,290.8475,0.0019966,0.00036096,0.0,0 STARLINK-3773,1 52291U 22041AG  24158.84009596  .00036096  00000-0  19966-2 0  9996,2 52291  53.2168  94.6935 0005626  69.3122 290.8475 15.13546619118998,6903.531,95.141,529.28,521.513,0.0
52291.0,STARLINK-3773,PAYLOAD,2024-06-08 02:16:21,15.13660763,0.0005511,53.2174,89.0203,73.4363,286.7237,0.0026814,0.00048823,0.0,0 STARLINK-3773,1 52291U 22041AG  24160.09469246  .00048823  00000-0  26814-2 0  9999,2 52291  53.2174  89.0203 0005511  73.4363 286.7237 15.13660763119186,6903.184,95.134,528.854,521.245,0.0
52291.0,STARLINK-3773,PAYLOAD,2024-06-08 11:46:50,15.13696446,0.0005483,53.2173,87.2287,75.0527,285.1074,0.0025207,0.00045906,0.0,0 STARLINK-3773,1 52291U 22041AG  24160.49086101  .00045906  00000-0  25207-2 0  9992,2 52291  53.2173  87.2287 0005483  75.0527 285.1074 15.13696446118026,6903.076,95.131,528.726,521.156,0.0
52291.0,STARLINK-3773,PAYLOAD,2024-06-08 22:52:23,15.13735774,0.0005471,53.2174,85.1381,76.1353,284.0249,0.002307,0.00042012,0.0,0 STARLINK-3773,1 52291U 22041AG  24160.95304562  .00042012  00000-0  23070-2 0  9998,2 52291  53.2174  85.1381 0005471  76.1353 284.0249 15.13735774118092,6902.956,95.129,528.598,521.045,0.0
52291.0,STARLINK-3773,PAYLOAD,2024-06-09 02:02:32,15.13747452,0.0005459,53.2173,84.5409,76.5564,283.6038,0.0023309,0.00042467,0.0,0 STARLINK-3773,1 52291U 22041AG  24161.08509612  .00042467  00000-0  23309-2 0  9995,2 52291  53.2173  84.5409 0005459  76.5564 283.6038 15.13747452119334,6902.921,95.128,528.554,521.018,0.0
52291.0,STARLINK-3773,PAYLOAD,2024-06-09 22:38:29,15.13818535,0.0005337,53.2171,80.6585,79.5801,280.5795,0.0022053,0.0004023,0.0,0 STARLINK-3773,1 52291U 22041AG  24161.94340057  .00040230  00000-0  22053-2 0  9997,2 52291  53.2171  80.6585 0005337  79.5801 280.5795 15.13818535118242,6902.705,95.124,528.254,520.886,0.0
52291.0,STARLINK-3773,PAYLOAD,2024-06-10 11:19:03,15.13859039,0.0005279,53.2166,78.2693,81.4662,278.693,0.0019703,0.0003593,0.0,0 STARLINK-3773,1 52291U 22041AG  24162.47156810  .00035930  00000-0  19703-2 0  9997,2 52291  53.2166  78.2693 0005279  81.4662 278.6930 15.13859039119548,6902.582,95.121,528.09,520.803,0.0
52291.0,STARLINK-3773,PAYLOAD,2024-06-10 22:24:31,15.13900437,0.0005205,53.2162,76.1781,82.5286,277.6299,0.0023463,0.00042936,0.0,0 STARLINK-3773,1 52291U 22041AG  24162.93370271  .00042936  00000-0  23463-2 0  9999,2 52291  53.2162  76.1781 0005205  82.5286 277.6299 15.13900437118390,6902.456,95.119,527.913,520.728,0.0
52291.0,STARLINK-3773,PAYLOAD,2024-06-11 11:05:03,15.13947118,0.0005164,53.216,73.7892,85.3464,274.812,0.0025091,0.00046017,0.0,0 STARLINK-3773,1 52291U 22041AG  24163.46184182  .00046017  00000-0  25091-2 0  9995,2 52291  53.2160  73.7892 0005164  85.3464 274.8120 15.13947118118475,6902.314,95.116,527.743,520.615,0.0
52291.0,STARLINK-3773,PAYLOAD,2024-06-12 01:20:36,15.13991448,0.000514,53.2154,71.1006,87.2303,272.928,0.002175,0.00039865,0.0,0 STARLINK-3773,1 52291U 22041AG  24164.05598043  .00039865  00000-0  21750-2 0  9997,2 52291  53.2154  71.1006 0005140  87.2303 272.9280 15.13991448119780,6902.179,95.113,527.592,520.496,0.0
52291.0,STARLINK-3773,PAYLOAD,2024-06-12 21:56:22,15.14051601,0.0005079,53.2151,67.2169,89.7103,270.4473,0.0019365,0.00035498,0.0,0 STARLINK-3773,1 52291U 22041AG  24164.91415026  .00035498  00000-0  19365-2 0  9998,2 52291  53.2151  67.2169 0005079  89.7103 270.4473 15.14051601118694,6901.996,95.109,527.367,520.356,0.0
52291.0,STARLINK-3773,PAYLOAD,2024-06-13 02:41:32,15.14066273,0.0005083,53.215,66.3208,90.3132,269.8445,0.0019985,0.00036666,0.0,0 STARLINK-3773,1 52291U 22041AG  24165.11218462  .00036666  00000-0  19985-2 0  9992,2 52291  53.2150  66.3208 0005083  90.3132 269.8445 15.14066273119943,6901.952,95.108,527.325,520.308,0.0
52291.0,STARLINK-3773,PAYLOAD,2024-06-13 10:36:49,15.1408759,0.0005054,53.215,64.827,91.2444,268.9129,0.0018546,0.00034012,0.0,0 STARLINK-3773,1 52291U 22041AG  24165.44223794  .00034012  00000-0  18546-2 0  9997,2 52291  53.2150  64.8270 0005054  91.2444 268.9129 15.14087590118773,6901.887,95.107,527.24,520.264,0.0
52291.0,STARLINK-3773,PAYLOAD,2024-06-14 10:22:36,15.14150229,0.0005035,53.2155,60.3455,93.5588,266.5982,0.0016986,0.00031168,0.0,0 STARLINK-3773,1 52291U 22041AG  24166.43237027  .00031168  00000-0  16986-2 0  9996,2 52291  53.2155  60.3455 0005035  93.5588 266.5982 15.14150229118925,6901.697,95.103,527.037,520.087,0.0
52291.0,STARLINK-3773,PAYLOAD,2024-06-14 21:27:57,15.14181574,0.0004998,53.2157,58.254,94.6401,265.5165,0.0017775,0.00032666,0.0,0 STARLINK-3773,1 52291U 22041AG  24166.89441728  .00032666  00000-0  17775-2 0  9992,2 52291  53.2157  58.2540 0004998  94.6401 265.5165 15.14181574118997,6901.601,95.101,526.916,520.017,0.0
52291.0,STARLINK-3773,PAYLOAD,2024-06-15 10:08:20,15.14220181,0.0004945,53.2158,55.8634,96.071,264.0848,0.0018898,0.00034797,0.0,0 STARLINK-3773,1 52291U 22041AG  24167.42245865  .00034797  00000-0  18898-2 0  9990,2 52291  53.2158  55.8634 0004945  96.0710 264.0848 15.14220181119076,6901.484,95.098,526.762,519.936,0.0
52291.0,STARLINK-3773,PAYLOAD,2024-06-15 22:48:42,15.14263111,0.0004929,53.2164,53.4732,96.9726,263.183,0.0022234,0.00041079,0.0,0 STARLINK-3773,1 52291U 22041AG  24167.95048676  .00041079  00000-0  22234-2 0  9999,2 52291  53.2164  53.4732 0004929  96.9726 263.1830 15.14263111119154,6901.354,95.096,526.62,519.817,0.0
52291.0,STARLINK-3773,PAYLOAD,2024-06-16 09:53:59,15.1429943,0.0004912,53.2164,51.3818,97.7543,262.401,0.0022264,0.00041178,0.0,0 STARLINK-3773,1 52291U 22041AG  24168.41249936  .00041178  00000-0  22264-2 0  9996,2 52291  53.2164  51.3818 0004912  97.7543 262.4010 15.14299430119227,6901.243,95.093,526.498,519.718,0.0
52291.0,STARLINK-3773,PAYLOAD,2024-06-16 22:34:19,15.1433448,0.0004919,53.2168,48.9912,99.2247,260.9304,0.0020014,0.00037001,0.0,0 STARLINK-3773,1 52291U 22041AG  24168.94050157  .00037001  00000-0  20014-2 0  9990,2 52291  53.2168  48.9912 0004919  99.2247 260.9304 15.14334480119306,6901.137,95.091,526.396,519.607,0.0
52291.0,STARLINK-3773,PAYLOAD,2024-06-17 22:19:52,15.14395799,0.0004834,53.2172,44.5092,101.0996,259.0542,0.0017512,0.00032372,0.0,0 STARLINK-3773,1 52291U 22041AG  24169.93047329  .00032372  00000-0  17512-2 0  9992,2 52291  53.2172  44.5092 0004834 101.0996 259.0542 15.14395799119450,6900.95,95.087,526.151,519.48,0.0
52291.0,STARLINK-3773,PAYLOAD,2024-06-18 22:05:22,15.14456133,0.0004764,53.2176,40.0271,103.4757,256.6768,0.001637,0.00030284,0.0,0 STARLINK-3773,1 52291U 22041AG  24170.92040444  .00030284  00000-0  16370-2 0  9995,2 52291  53.2176  40.0271 0004764 103.4757 256.6768 15.14456133119607,6900.767,95.084,525.92,519.345,0.0
52291.0,STARLINK-3773,PAYLOAD,2024-06-19 20:15:47,15.14507843,0.000468,53.2178,35.844,105.7916,254.3595,0.0013291,0.00024546,0.0,0 STARLINK-3773,1 52291U 22041AG  24171.84430474  .00024546  00000-0  13291-2 0  9996,2 52291  53.2178  35.8440 0004680 105.7916 254.3595 15.14507843120967,6900.61,95.08,525.705,519.246,0.0
52291.0,STARLINK-3773,PAYLOAD,2024-06-19 21:50:49,15.14511292,0.0004674,53.218,35.5454,105.8468,254.3043,0.0013099,0.00024188,0.0,0 STARLINK-3773,1 52291U 22041AG  24171.91029646  .00024188  00000-0  13099-2 0  9997,2 52291  53.2180  35.5454 0004674 105.8468 254.3043 15.14511292119754,6900.6,95.08,525.69,519.239,0.0
52291.0,STARLINK-3773,PAYLOAD,2024-06-20 07:20:59,15.14535252,0.0004606,53.218,33.752,107.268,252.8819,0.001292,0.00023869,0.0,0 STARLINK-3773,1 52291U 22041AG  24172.30624237  .00023869  00000-0  12920-2 0  9995,2 52291  53.2180  33.7520 0004606 107.2680 252.8819 15.14535252119818,6900.527,95.079,525.57,519.213,0.0
52291.0,STARLINK-3773,PAYLOAD,2024-06-20 21:36:13,15.14570484,0.0004559,53.218,31.0623,108.6248,251.5242,0.0014041,0.00026,0.0,0 STARLINK-3773,1 52291U 22041AG  24172.90015047  .00026000  00000-0  14041-2 0  9990,2 52291  53.2180  31.0623 0004559 108.6248 251.5242 15.14570484121124,6900.42,95.076,525.431,519.139,0.0
52291.0,STARLINK-3773,PAYLOAD,2024-06-21 15:01:28,15.14612379,0.0004484,53.2181,27.7742,110.7381,249.4095,0.0014823,0.00027503,0.0,0 STARLINK-3773,1 52291U 22041AG  24173.62602037  .00027503  00000-0  14823-2 0  9998,2 52291  53.2181  27.7742 0004484 110.7381 249.4095 15.14612379120017,6900.293,95.074,525.252,519.064,0.0
